{
  "type": "FeatureCollection",
  "features": [
    {
      "type": "Feature",
      "properties": {
        "norad_id": 29904,
        "name": "FENGYUN 1C DEB",
        "group": "fengyun-1c-debris",
        "lat": -18.699037739083376,
        "lon": 25.005647943079595,
        "alt_km": 605.49892124911,
        "timestamp": "2025-12-10T04:57:29.890419+00:00",
        "meta_object_name": "FENGYUN 1C DEB",
        "meta_object_id": "1999-025HA",
        "meta_epoch": "2025-12-09T14:04:50.276064",
        "meta_mean_motion": 14.44461493,
        "meta_eccentricity": 0.0207931,
        "meta_inclination": 99.0418,
        "meta_ra_of_asc_node": 21.2568,
        "meta_arg_of_pericenter": 328.0737,
        "meta_mean_anomaly": 30.7987,
        "meta_ephemeris_type": 0,
        "meta_classification_type": "U",
        "meta_norad_cat_id": 29904,
        "meta_element_set_no": 999,
        "meta_rev_at_epoch": 99018,
        "meta_bstar": 0.00071371,
        "meta_mean_motion_dot": 3.149e-05,
        "meta_mean_motion_ddot": 0,
        "tle_line1": "1 29904U 99025HA  25343.58669301  .00003149  00000+0  71371-3 0  9992",
        "tle_line2": "2 29904  99.0418  21.2568 0207931 328.0737  30.7987 14.44461493990184"
      },
      "geometry": {
        "type": "Point",
        "coordinates": [
          25.005647943079595,
          -18.699037739083376
        ]
      }
    },
    {
      "type": "Feature",
      "properties": {
        "norad_id": 29906,
        "name": "FENGYUN 1C DEB",
        "group": "fengyun-1c-debris",
        "lat": -28.389899250663984,
        "lon": -97.2796347326104,
        "alt_km": 716.5397726548417,
        "timestamp": "2025-12-10T04:57:29.890429+00:00",
        "meta_object_name": "FENGYUN 1C DEB",
        "meta_object_id": "1999-025HC",
        "meta_epoch": "2025-12-09T18:03:40.224096",
        "meta_mean_motion": 14.49547992,
        "meta_eccentricity": 0.0037258,
        "meta_inclination": 98.7056,
        "meta_ra_of_asc_node": 87.002,
        "meta_arg_of_pericenter": 157.9898,
        "meta_mean_anomaly": 202.2905,
        "meta_ephemeris_type": 0,
        "meta_classification_type": "U",
        "meta_norad_cat_id": 29906,
        "meta_element_set_no": 999,
        "meta_rev_at_epoch": 98114,
        "meta_bstar": 0.0039696,
        "meta_mean_motion_dot": 0.00015347,
        "meta_mean_motion_ddot": 0,
        "tle_line1": "1 29906U 99025HC  25343.75254889  .00015347  00000+0  39696-2 0  9990",
        "tle_line2": "2 29906  98.7056  87.0020 0037258 157.9898 202.2905 14.49547992981149"
      },
      "geometry": {
        "type": "Point",
        "coordinates": [
          -97.2796347326104,
          -28.389899250663984
        ]
      }
    },
    {
      "type": "Feature",
      "properties": {
        "norad_id": 29907,
        "name": "FENGYUN 1C DEB",
        "group": "fengyun-1c-debris",
        "lat": -18.960385252427635,
        "lon": 54.00236943581747,
        "alt_km": 852.3660486662029,
        "timestamp": "2025-12-10T04:57:29.890439+00:00",
        "meta_object_name": "FENGYUN 1C DEB",
        "meta_object_id": "1999-025HD",
        "meta_epoch": "2025-12-09T16:10:00.602112",
        "meta_mean_motion": 14.11607036,
        "meta_eccentricity": 0.0083736,
        "meta_inclination": 99.1115,
        "meta_ra_of_asc_node": 50.3008,
        "meta_arg_of_pericenter": 258.0765,
        "meta_mean_anomaly": 254.8835,
        "meta_ephemeris_type": 0,
        "meta_classification_type": "U",
        "meta_norad_cat_id": 29907,
        "meta_element_set_no": 999,
        "meta_rev_at_epoch": 96555,
        "meta_bstar": 0.0023601,
        "meta_mean_motion_dot": 4.388e-05,
        "meta_mean_motion_ddot": 0,
        "tle_line1": "1 29907U 99025HD  25343.67361808  .00004388  00000+0  23601-2 0  9994",
        "tle_line2": "2 29907  99.1115  50.3008 0083736 258.0765 254.8835 14.11607036965555"
      },
      "geometry": {
        "type": "Point",
        "coordinates": [
          54.00236943581747,
          -18.960385252427635
        ]
      }
    },
    {
      "type": "Feature",
      "properties": {
        "norad_id": 29909,
        "name": "FENGYUN 1C DEB",
        "group": "fengyun-1c-debris",
        "lat": -53.24682179245565,
        "lon": -103.81504909808447,
        "alt_km": 739.5180312919911,
        "timestamp": "2025-12-10T04:57:29.890449+00:00",
        "meta_object_name": "FENGYUN 1C DEB",
        "meta_object_id": "1999-025HF",
        "meta_epoch": "2025-12-09T18:40:29.707104",
        "meta_mean_motion": 14.55038346,
        "meta_eccentricity": 0.0038355,
        "meta_inclination": 98.6348,
        "meta_ra_of_asc_node": 87.4825,
        "meta_arg_of_pericenter": 24.6528,
        "meta_mean_anomaly": 126.5258,
        "meta_ephemeris_type": 0,
        "meta_classification_type": "U",
        "meta_norad_cat_id": 29909,
        "meta_element_set_no": 999,
        "meta_rev_at_epoch": 98362,
        "meta_bstar": 0.0031446,
        "meta_mean_motion_dot": 0.00013662,
        "meta_mean_motion_ddot": 0,
        "tle_line1": "1 29909U 99025HF  25343.77812161  .00013662  00000+0  31446-2 0  9991",
        "tle_line2": "2 29909  98.6348  87.4825 0038355  24.6528 126.5258 14.55038346983620"
      },
      "geometry": {
        "type": "Point",
        "coordinates": [
          -103.81504909808447,
          -53.24682179245565
        ]
      }
    },
    {
      "type": "Feature",
      "properties": {
        "norad_id": 29911,
        "name": "FENGYUN 1C DEB",
        "group": "fengyun-1c-debris",
        "lat": -10.186851345316125,
        "lon": 28.941641720608096,
        "alt_km": 852.7107870697309,
        "timestamp": "2025-12-10T04:57:29.890459+00:00",
        "meta_object_name": "FENGYUN 1C DEB",
        "meta_object_id": "1999-025HH",
        "meta_epoch": "2025-12-09T14:30:58.431744",
        "meta_mean_motion": 14.18840763,
        "meta_eccentricity": 0.0027367,
        "meta_inclination": 98.7156,
        "meta_ra_of_asc_node": 26.7707,
        "meta_arg_of_pericenter": 159.6704,
        "meta_mean_anomaly": 358.2811,
        "meta_ephemeris_type": 0,
        "meta_classification_type": "U",
        "meta_norad_cat_id": 29911,
        "meta_element_set_no": 999,
        "meta_rev_at_epoch": 97386,
        "meta_bstar": 0.0011526,
        "meta_mean_motion_dot": 2.364e-05,
        "meta_mean_motion_ddot": 0,
        "tle_line1": "1 29911U 99025HH  25343.60484296  .00002364  00000+0  11526-2 0  9994",
        "tle_line2": "2 29911  98.7156  26.7707 0027367 159.6704 358.2811 14.18840763973869"
      },
      "geometry": {
        "type": "Point",
        "coordinates": [
          28.941641720608096,
          -10.186851345316125
        ]
      }
    },
    {
      "type": "Feature",
      "properties": {
        "norad_id": 29912,
        "name": "FENGYUN 1C DEB",
        "group": "fengyun-1c-debris",
        "lat": 80.95814853476938,
        "lon": 6.45673258634512,
        "alt_km": 764.1871504471237,
        "timestamp": "2025-12-10T04:57:29.890470+00:00",
        "meta_object_name": "FENGYUN 1C DEB",
        "meta_object_id": "1999-025HJ",
        "meta_epoch": "2025-12-09T05:32:43.813824",
        "meta_mean_motion": 14.42897113,
        "meta_eccentricity": 0.0042791,
        "meta_inclination": 98.7383,
        "meta_ra_of_asc_node": 80.5894,
        "meta_arg_of_pericenter": 229.0472,
        "meta_mean_anomaly": 194.5115,
        "meta_ephemeris_type": 0,
        "meta_classification_type": "U",
        "meta_norad_cat_id": 29912,
        "meta_element_set_no": 999,
        "meta_rev_at_epoch": 97988,
        "meta_bstar": 0.0031112,
        "meta_mean_motion_dot": 0.00010479,
        "meta_mean_motion_ddot": 0,
        "tle_line1": "1 29912U 99025HJ  25343.23106266  .00010479  00000+0  31112-2 0  9991",
        "tle_line2": "2 29912  98.7383  80.5894 0042791 229.0472 194.5115 14.42897113979883"
      },
      "geometry": {
        "type": "Point",
        "coordinates": [
          6.45673258634512,
          80.95814853476938
        ]
      }
    },
    {
      "type": "Feature",
      "properties": {
        "norad_id": 29913,
        "name": "FENGYUN 1C DEB",
        "group": "fengyun-1c-debris",
        "lat": 18.504641699758807,
        "lon": 166.09534551451745,
        "alt_km": 889.1614076927272,
        "timestamp": "2025-12-10T04:57:29.890480+00:00",
        "meta_object_name": "FENGYUN 1C DEB",
        "meta_object_id": "1999-025HK",
        "meta_epoch": "2025-12-09T11:52:58.211616",
        "meta_mean_motion": 14.0737695,
        "meta_eccentricity": 0.00619135,
        "meta_inclination": 98.7875,
        "meta_ra_of_asc_node": 342.436,
        "meta_arg_of_pericenter": 280.7877,
        "meta_mean_anomaly": 238.2609,
        "meta_ephemeris_type": 0,
        "meta_classification_type": "U",
        "meta_norad_cat_id": 29913,
        "meta_element_set_no": 999,
        "meta_rev_at_epoch": 96919,
        "meta_bstar": 0.00048640597,
        "meta_mean_motion_dot": 7.89e-06,
        "meta_mean_motion_ddot": 0,
        "tle_line1": "1 29913U 99025HK  25343.49511819  .00000789  00000+0  48641-3 0  9993",
        "tle_line2": "2 29913  98.7875 342.4360 0061913 280.7877 238.2609 14.07376950969197"
      },
      "geometry": {
        "type": "Point",
        "coordinates": [
          166.09534551451745,
          18.504641699758807
        ]
      }
    }
  ]
}